{"fetched_at":"2026-07-19T07:04:45.586Z","source":"https://celestrak.org/NORAD/elements/gp.php?GROUP=iridium-NEXT&FORMAT=JSON","constellation":"iridium","records":[{"OBJECT_NAME":"IRIDIUM 126","OBJECT_ID":"2017-039G","EPOCH":"2026-07-18T19:45:54.929952","CLASSIFICATION_TYPE":"U","MEAN_MOTION":14.34217668,"ECCENTRICITY":0.0001973,"INCLINATION":86.3991,"RA_OF_ASC_NODE":340.42,"ARG_OF_PERICENTER":93.0094,"MEAN_ANOMALY":267.1327,"EPHEMERIS_TYPE":0,"NORAD_CAT_ID":42809,"ELEMENT_SET_NO":999,"REV_AT_EPOCH":47448,"BSTAR":0.0000022975,"MEAN_MOTION_DOT":2.6e-7,"MEAN_MOTION_DDOT":0},{"OBJECT_NAME":"IRIDIUM 124","OBJECT_ID":"2017-039H","EPOCH":"2026-07-18T17:40:39.131328","CLASSIFICATION_TYPE":"U","MEAN_MOTION":14.43274853,"ECCENTRICITY":0.0002247,"INCLINATION":86.4479,"RA_OF_ASC_NODE":277.1679,"ARG_OF_PERICENTER":96.9153,"MEAN_ANOMALY":263.2303,"EPHEMERIS_TYPE":0,"NORAD_CAT_ID":42810,"ELEMENT_SET_NO":999,"REV_AT_EPOCH":47966,"BSTAR":0.000024667,"MEAN_MOTION_DOT":0.00000103,"MEAN_MOTION_DDOT":0},{"OBJECT_NAME":"IRIDIUM 128","OBJECT_ID":"2017-039J","EPOCH":"2026-07-18T11:10:14.989728","CLASSIFICATION_TYPE":"U","MEAN_MOTION":14.34217649,"ECCENTRICITY":0.00022829,"INCLINATION":86.3969,"RA_OF_ASC_NODE":12.0693,"ARG_OF_PERICENTER":93.5669,"MEAN_ANOMALY":266.5788,"EPHEMERIS_TYPE":0,"NORAD_CAT_ID":42811,"ELEMENT_SET_NO":999,"REV_AT_EPOCH":47446,"BSTAR":0.000027183621,"MEAN_MOTION_DOT":9.6e-7,"MEAN_MOTION_DDOT":0},{"OBJECT_NAME":"IRIDIUM 121","OBJECT_ID":"2017-039K","EPOCH":"2026-07-18T18:32:50.993088","CLASSIFICATION_TYPE":"U","MEAN_MOTION":14.34217428,"ECCENTRICITY":0.0002255,"INCLINATION":86.3997,"RA_OF_ASC_NODE":340.4688,"ARG_OF_PERICENTER":93.1057,"MEAN_ANOMALY":267.0397,"EPHEMERIS_TYPE":0,"NORAD_CAT_ID":42812,"ELEMENT_SET_NO":999,"REV_AT_EPOCH":47435,"BSTAR":-0.0000064517,"MEAN_MOTION_DOT":2e-8,"MEAN_MOTION_DDOT":0},{"OBJECT_NAME":"IRIDIUM 133","OBJECT_ID":"2017-061A","EPOCH":"2026-07-18T10:15:26.773344","CLASSIFICATION_TYPE":"U","MEAN_MOTION":14.3421793,"ECCENTRICITY":0.00022133,"INCLINATION":86.3969,"RA_OF_ASC_NODE":12.2038,"ARG_OF_PERICENTER":91.4738,"MEAN_ANOMALY":268.6712,"EPHEMERIS_TYPE":0,"NORAD_CAT_ID":42955,"ELEMENT_SET_NO":999,"REV_AT_EPOCH":45925,"BSTAR":0.000028775939,"MEAN_MOTION_DOT":0.000001,"MEAN_MOTION_DDOT":0},{"OBJECT_NAME":"IRIDIUM 100","OBJECT_ID":"2017-061B","EPOCH":"2026-07-18T18:28:38.864064","CLASSIFICATION_TYPE":"U","MEAN_MOTION":14.34218061,"ECCENTRICITY":0.0002219,"INCLINATION":86.3968,"RA_OF_ASC_NODE":11.9783,"ARG_OF_PERICENTER":90.7999,"MEAN_ANOMALY":269.3451,"EPHEMERIS_TYPE":0,"NORAD_CAT_ID":42956,"ELEMENT_SET_NO":999,"REV_AT_EPOCH":45930,"BSTAR":0.000027629,"MEAN_MOTION_DOT":9.7e-7,"MEAN_MOTION_DDOT":0},{"OBJECT_NAME":"IRIDIUM 122","OBJECT_ID":"2017-061C","EPOCH":"2026-07-18T09:20:38.635584","CLASSIFICATION_TYPE":"U","MEAN_MOTION":14.34216449,"ECCENTRICITY":0.00021257,"INCLINATION":86.397,"RA_OF_ASC_NODE":12.1377,"ARG_OF_PERICENTER":91.1007,"MEAN_ANOMALY":269.0432,"EPHEMERIS_TYPE":0,"NORAD_CAT_ID":42957,"ELEMENT_SET_NO":999,"REV_AT_EPOCH":45925,"BSTAR":0.000009919605,"MEAN_MOTION_DOT":4.8e-7,"MEAN_MOTION_DDOT":0},{"OBJECT_NAME":"IRIDIUM 129","OBJECT_ID":"2017-061D","EPOCH":"2026-07-18T11:37:38.786016","CLASSIFICATION_TYPE":"U","MEAN_MOTION":14.34215871,"ECCENTRICITY":0.00021015,"INCLINATION":86.3969,"RA_OF_ASC_NODE":12.1654,"ARG_OF_PERICENTER":88.2967,"MEAN_ANOMALY":271.847,"EPHEMERIS_TYPE":0,"NORAD_CAT_ID":42958,"ELEMENT_SET_NO":999,"REV_AT_EPOCH":45928,"BSTAR":0.000013489128,"MEAN_MOTION_DOT":5.8e-7,"MEAN_MOTION_DDOT":0},{"OBJECT_NAME":"IRIDIUM 119","OBJECT_ID":"2017-061E","EPOCH":"2026-07-18T00:49:10.959168","CLASSIFICATION_TYPE":"U","MEAN_MOTION":14.34217346,"ECCENTRICITY":0.00021147,"INCLINATION":86.397,"RA_OF_ASC_NODE":12.3494,"ARG_OF_PERICENTER":91.4855,"MEAN_ANOMALY":268.6583,"EPHEMERIS_TYPE":0,"NORAD_CAT_ID":42959,"ELEMENT_SET_NO":999,"REV_AT_EPOCH":45923,"BSTAR":0.000021677729,"MEAN_MOTION_DOT":8e-7,"MEAN_MOTION_DDOT":0},{"OBJECT_NAME":"IRIDIUM 107","OBJECT_ID":"2017-061F","EPOCH":"2026-07-18T11:19:22.722528","CLASSIFICATION_TYPE":"U","MEAN_MOTION":14.3421747,"ECCENTRICITY":0.00021615,"INCLINATION":86.3971,"RA_OF_ASC_NODE":12.188,"ARG_OF_PERICENTER":97.1712,"MEAN_ANOMALY":262.9729,"EPHEMERIS_TYPE":0,"NORAD_CAT_ID":42960,"ELEMENT_SET_NO":999,"REV_AT_EPOCH":45930,"BSTAR":0.000007583256,"MEAN_MOTION_DOT":4.1e-7,"MEAN_MOTION_DDOT":0},{"OBJECT_NAME":"IRIDIUM 132","OBJECT_ID":"2017-061G","EPOCH":"2026-07-18T11:28:30.890784","CLASSIFICATION_TYPE":"U","MEAN_MOTION":14.34217423,"ECCENTRICITY":0.00021787,"INCLINATION":86.397,"RA_OF_ASC_NODE":12.1646,"ARG_OF_PERICENTER":90.7869,"MEAN_ANOMALY":269.3576,"EPHEMERIS_TYPE":0,"NORAD_CAT_ID":42961,"ELEMENT_SET_NO":999,"REV_AT_EPOCH":45930,"BSTAR":0.000025380286,"MEAN_MOTION_DOT":9.1e-7,"MEAN_MOTION_DDOT":0},{"OBJECT_NAME":"IRIDIUM 136","OBJECT_ID":"2017-061H","EPOCH":"2026-07-18T17:15:34.859808","CLASSIFICATION_TYPE":"U","MEAN_MOTION":14.34218009,"ECCENTRICITY":0.0002256,"INCLINATION":86.3971,"RA_OF_ASC_NODE":12.0707,"ARG_OF_PERICENTER":90.672,"MEAN_ANOMALY":269.4734,"EPHEMERIS_TYPE":0,"NORAD_CAT_ID":42962,"ELEMENT_SET_NO":999,"REV_AT_EPOCH":45935,"BSTAR":0.00002631,"MEAN_MOTION_DOT":9.3e-7,"MEAN_MOTION_DDOT":0},{"OBJECT_NAME":"IRIDIUM 139","OBJECT_ID":"2017-061J","EPOCH":"2026-07-18T17:24:42.948576","CLASSIFICATION_TYPE":"U","MEAN_MOTION":14.3421792,"ECCENTRICITY":0.0002265,"INCLINATION":86.3973,"RA_OF_ASC_NODE":12.1304,"ARG_OF_PERICENTER":92.437,"MEAN_ANOMALY":267.7085,"EPHEMERIS_TYPE":0,"NORAD_CAT_ID":42963,"ELEMENT_SET_NO":999,"REV_AT_EPOCH":45936,"BSTAR":0.000025526,"MEAN_MOTION_DOT":9.1e-7,"MEAN_MOTION_DDOT":0},{"OBJECT_NAME":"IRIDIUM 125","OBJECT_ID":"2017-061K","EPOCH":"2026-07-18T17:06:26.834112","CLASSIFICATION_TYPE":"U","MEAN_MOTION":14.34218206,"ECCENTRICITY":0.0001704,"INCLINATION":86.3974,"RA_OF_ASC_NODE":12.1974,"ARG_OF_PERICENTER":97.2939,"MEAN_ANOMALY":262.8451,"EPHEMERIS_TYPE":0,"NORAD_CAT_ID":42964,"ELEMENT_SET_NO":999,"REV_AT_EPOCH":45937,"BSTAR":0.000024699,"MEAN_MOTION_DOT":8.9e-7,"MEAN_MOTION_DDOT":0},{"OBJECT_NAME":"IRIDIUM 135","OBJECT_ID":"2017-083A","EPOCH":"2026-07-18T19:50:07.160064","CLASSIFICATION_TYPE":"U","MEAN_MOTION":14.34217719,"ECCENTRICITY":0.0002116,"INCLINATION":86.3984,"RA_OF_ASC_NODE":308.7903,"ARG_OF_PERICENTER":95.2465,"MEAN_ANOMALY":264.8972,"EPHEMERIS_TYPE":0,"NORAD_CAT_ID":43070,"ELEMENT_SET_NO":999,"REV_AT_EPOCH":44868,"BSTAR":-0.00000716,"MEAN_MOTION_DOT":0,"MEAN_MOTION_DDOT":0},{"OBJECT_NAME":"IRIDIUM 138","OBJECT_ID":"2017-083B","EPOCH":"2026-07-18T18:46:11.044128","CLASSIFICATION_TYPE":"U","MEAN_MOTION":14.34217073,"ECCENTRICITY":0.000203,"INCLINATION":86.4001,"RA_OF_ASC_NODE":308.5089,"ARG_OF_PERICENTER":93.9917,"MEAN_ANOMALY":266.1511,"EPHEMERIS_TYPE":0,"NORAD_CAT_ID":43071,"ELEMENT_SET_NO":999,"REV_AT_EPOCH":44866,"BSTAR":0.000061449,"MEAN_MOTION_DOT":0.00000192,"MEAN_MOTION_DDOT":0}]}
